*******************************************************************************
Ephemeris / WWW_USER Mon Mar 10 06:49:30 2025 Pasadena, USA      / Horizons    
*******************************************************************************
Target body name: (2018 VS8)                      {source: JPL#8}
Center body name: Earth (399)                     {source: DE441}
Center-site name: Mauna Kea
*******************************************************************************
Start time      : A.D. 2018-Sep-04 04:44:00.0000 UT      
Stop  time      : A.D. 2018-Sep-04 15:57:00.0000 UT      
Step-size       : 1 minutes
*******************************************************************************
Target pole/equ : undefined
Target radii    : undefined                                                    
Center geodetic : 204.5278, 19.8260847, 4.21024   {E-lon(deg),Lat(deg),Alt(km)}
Center cylindric: 204.5278, 6006.35451, 2151.0229 {E-lon(deg),Dxy(km),Dz(km)}
Center pole/equ : ITRF93                          {East-longitude positive}
Center radii    : 6378.137, 6378.137, 6356.752 km {Equator_a, b, pole_c}       
Target primary  : Sun
Vis. interferer : MOON (R_eq= 1737.400) km        {source: DE441}
Rel. light bend : Sun                             {source: DE441}
Rel. lght bnd GM: 1.3271E+11 km^3/s^2                                          
Small-body perts: Yes                             {source: SB441-N16}
Atmos refraction: NO (AIRLESS)
RA format       : HMS
Time format     : CAL 
Calendar mode   : Mixed Julian/Gregorian
RTS-only print  : NO       
EOP file        : eop.250307.p250603                                           
EOP coverage    : DATA-BASED 1962-JAN-20 TO 2025-MAR-07. PREDICTS-> 2025-JUN-02
Units conversion: 1 au= 149597870.700 km, c= 299792.458 km/s, 1 day= 86400.0 s 
Table cut-offs 1: Elevation (-90.0deg=NO ),Airmass (>38.000=NO), Daylight (YES)
Table cut-offs 2: Solar elongation (  0.0,180.0=NO ),Local Hour Angle( 0.0=NO )
Table cut-offs 3: RA/DEC angular rate (     0.0=NO )                           
*******************************************************************************
Initial IAU76/J2000 heliocentric ecliptic osculating elements (au, days, deg.):
  EPOCH=  2458433.5 ! 2018-Nov-11.00 (TDB)         Residual RMS= .33953        
   EC= .5263784885368822   QR= .9373233613851428   TP= 2458465.1575556668      
   OM= 53.89076972236643   W=  33.71683445616237   IN= 3.430463171034721       
  Equivalent ICRF heliocentric cartesian coordinates (au, au/d):
   X= 6.888560011548344E-01  Y= 6.928655939663307E-01  Z= 2.929974091538562E-01
  VX=-1.813811938800288E-02 VY= 8.693003909227039E-03 VZ= 5.111678677431928E-03
Asteroid physical parameters (km, seconds, rotational period in hours):        
   GM= n.a.                RAD= n.a.               ROTPER= n.a.                
   H= 27.2                 G= .150                 B-V= n.a.                   
                           ALBEDO= n.a.            STYP= n.a.                  
*******************************************************************************
 Date__(UT)__HR:MN     R.A._________(ICRF)_________DEC
******************************************************
$$SOE
 2018-Sep-04 12:56  m  01 14 10.424439 -00 56 52.38417
 2018-Sep-04 12:57  m  01 14 10.451091 -00 56 52.41307
 2018-Sep-04 12:58  m  01 14 10.477744 -00 56 52.44196
 2018-Sep-04 12:59  m  01 14 10.504397 -00 56 52.47085
 2018-Sep-04 13:00  m  01 14 10.531052 -00 56 52.49975
 2018-Sep-04 13:01  m  01 14 10.557707 -00 56 52.52864
 2018-Sep-04 13:02  m  01 14 10.584363 -00 56 52.55754
 2018-Sep-04 13:03  m  01 14 10.611020 -00 56 52.58644
 2018-Sep-04 13:04  m  01 14 10.637678 -00 56 52.61533
 2018-Sep-04 13:05  m  01 14 10.664337 -00 56 52.64423
 2018-Sep-04 13:06  m  01 14 10.690997 -00 56 52.67313
 2018-Sep-04 13:07  m  01 14 10.717659 -00 56 52.70203
 2018-Sep-04 13:08  m  01 14 10.744322 -00 56 52.73093
 2018-Sep-04 13:09  m  01 14 10.770986 -00 56 52.75983
 2018-Sep-04 13:10  m  01 14 10.797653 -00 56 52.78874
 2018-Sep-04 13:11  m  01 14 10.824320 -00 56 52.81764
 2018-Sep-04 13:12  m  01 14 10.850990 -00 56 52.84654
 2018-Sep-04 13:13  m  01 14 10.877661 -00 56 52.87544
 2018-Sep-04 13:14  m  01 14 10.904334 -00 56 52.90435
 2018-Sep-04 13:15  m  01 14 10.931010 -00 56 52.93325
 2018-Sep-04 13:16  m  01 14 10.957687 -00 56 52.96216
 2018-Sep-04 13:17  m  01 14 10.984366 -00 56 52.99107
 2018-Sep-04 13:18  m  01 14 11.011048 -00 56 53.01997
 2018-Sep-04 13:19  m  01 14 11.037732 -00 56 53.04888
 2018-Sep-04 13:20  m  01 14 11.064419 -00 56 53.07779
 2018-Sep-04 13:21  m  01 14 11.091108 -00 56 53.10670
 2018-Sep-04 13:22  m  01 14 11.117799 -00 56 53.13561
 2018-Sep-04 13:23  m  01 14 11.144493 -00 56 53.16452
 2018-Sep-04 13:24  m  01 14 11.171190 -00 56 53.19343
 2018-Sep-04 13:25  m  01 14 11.197890 -00 56 53.22234
 2018-Sep-04 13:26  m  01 14 11.224593 -00 56 53.25126
 2018-Sep-04 13:27  m  01 14 11.251298 -00 56 53.28017
 2018-Sep-04 13:28  m  01 14 11.278007 -00 56 53.30908
 2018-Sep-04 13:29  m  01 14 11.304719 -00 56 53.33800
 2018-Sep-04 13:30  m  01 14 11.331434 -00 56 53.36692
 2018-Sep-04 13:31  m  01 14 11.358153 -00 56 53.39583
 2018-Sep-04 13:32  m  01 14 11.384875 -00 56 53.42475
 2018-Sep-04 13:33  m  01 14 11.411600 -00 56 53.45367
 2018-Sep-04 13:34  m  01 14 11.438329 -00 56 53.48259
 2018-Sep-04 13:35  m  01 14 11.465062 -00 56 53.51150
 2018-Sep-04 13:36  m  01 14 11.491798 -00 56 53.54042
 2018-Sep-04 13:37  m  01 14 11.518539 -00 56 53.56935
 2018-Sep-04 13:38  m  01 14 11.545283 -00 56 53.59827
 2018-Sep-04 13:39  m  01 14 11.572031 -00 56 53.62719
 2018-Sep-04 13:40  m  01 14 11.598783 -00 56 53.65611
 2018-Sep-04 13:41  m  01 14 11.625540 -00 56 53.68504
 2018-Sep-04 13:42  m  01 14 11.652300 -00 56 53.71396
 2018-Sep-04 13:43  m  01 14 11.679065 -00 56 53.74289
 2018-Sep-04 13:44  m  01 14 11.705835 -00 56 53.77181
 2018-Sep-04 13:45  m  01 14 11.732608 -00 56 53.80074
 2018-Sep-04 13:46  m  01 14 11.759387 -00 56 53.82967
 2018-Sep-04 13:47  m  01 14 11.786170 -00 56 53.85860
 2018-Sep-04 13:48  m  01 14 11.812958 -00 56 53.88752
 2018-Sep-04 13:49  m  01 14 11.839751 -00 56 53.91645
 2018-Sep-04 13:50  m  01 14 11.866548 -00 56 53.94538
 2018-Sep-04 13:51  m  01 14 11.893351 -00 56 53.97432
 2018-Sep-04 13:52  m  01 14 11.920158 -00 56 54.00325
 2018-Sep-04 13:53  m  01 14 11.946971 -00 56 54.03218
 2018-Sep-04 13:54  m  01 14 11.973789 -00 56 54.06112
 2018-Sep-04 13:55  m  01 14 12.000612 -00 56 54.09005
 2018-Sep-04 13:56  m  01 14 12.027441 -00 56 54.11899
 2018-Sep-04 13:57  m  01 14 12.054275 -00 56 54.14792
 2018-Sep-04 13:58  m  01 14 12.081115 -00 56 54.17686
 2018-Sep-04 13:59  m  01 14 12.107960 -00 56 54.20580
 2018-Sep-04 14:00  m  01 14 12.134811 -00 56 54.23474
 2018-Sep-04 14:01  m  01 14 12.161668 -00 56 54.26368
 2018-Sep-04 14:02  m  01 14 12.188531 -00 56 54.29262
 2018-Sep-04 14:03  m  01 14 12.215399 -00 56 54.32156
 2018-Sep-04 14:04  m  01 14 12.242274 -00 56 54.35050
 2018-Sep-04 14:05  m  01 14 12.269155 -00 56 54.37944
 2018-Sep-04 14:06  m  01 14 12.296042 -00 56 54.40839
 2018-Sep-04 14:07  m  01 14 12.322935 -00 56 54.43733
 2018-Sep-04 14:08  m  01 14 12.349835 -00 56 54.46628
 2018-Sep-04 14:09  m  01 14 12.376741 -00 56 54.49523
 2018-Sep-04 14:10  m  01 14 12.403654 -00 56 54.52417
 2018-Sep-04 14:11  m  01 14 12.430573 -00 56 54.55312
 2018-Sep-04 14:12  m  01 14 12.457499 -00 56 54.58207
 2018-Sep-04 14:13  m  01 14 12.484431 -00 56 54.61102
 2018-Sep-04 14:14  m  01 14 12.511371 -00 56 54.63997
 2018-Sep-04 14:15  m  01 14 12.538317 -00 56 54.66893
 2018-Sep-04 14:16  m  01 14 12.565270 -00 56 54.69788
 2018-Sep-04 14:17  m  01 14 12.592231 -00 56 54.72683
 2018-Sep-04 14:18  m  01 14 12.619198 -00 56 54.75579
 2018-Sep-04 14:19  m  01 14 12.646173 -00 56 54.78474
 2018-Sep-04 14:20  m  01 14 12.673155 -00 56 54.81370
 2018-Sep-04 14:21  m  01 14 12.700144 -00 56 54.84266
 2018-Sep-04 14:22  m  01 14 12.727141 -00 56 54.87162
 2018-Sep-04 14:23  m  01 14 12.754146 -00 56 54.90058
 2018-Sep-04 14:24  m  01 14 12.781158 -00 56 54.92954
 2018-Sep-04 14:25  m  01 14 12.808177 -00 56 54.95850
 2018-Sep-04 14:26  m  01 14 12.835205 -00 56 54.98746
 2018-Sep-04 14:27  m  01 14 12.862240 -00 56 55.01643
 2018-Sep-04 14:28  m  01 14 12.889283 -00 56 55.04539
 2018-Sep-04 14:29  m  01 14 12.916335 -00 56 55.07436
 2018-Sep-04 14:30  m  01 14 12.943394 -00 56 55.10332
 2018-Sep-04 14:31  m  01 14 12.970461 -00 56 55.13229
 2018-Sep-04 14:32  m  01 14 12.997537 -00 56 55.16126
 2018-Sep-04 14:33  m  01 14 13.024621 -00 56 55.19023
 2018-Sep-04 14:34  m  01 14 13.051713 -00 56 55.21920
 2018-Sep-04 14:35  m  01 14 13.078814 -00 56 55.24817
 2018-Sep-04 14:36  m  01 14 13.105923 -00 56 55.27715
 2018-Sep-04 14:37  m  01 14 13.133041 -00 56 55.30612
 2018-Sep-04 14:38  m  01 14 13.160168 -00 56 55.33510
 2018-Sep-04 14:39  m  01 14 13.187303 -00 56 55.36407
 2018-Sep-04 14:40  m  01 14 13.214447 -00 56 55.39305
 2018-Sep-04 14:41  m  01 14 13.241600 -00 56 55.42203
 2018-Sep-04 14:42  m  01 14 13.268762 -00 56 55.45101
 2018-Sep-04 14:43  m  01 14 13.295934 -00 56 55.47999
 2018-Sep-04 14:44  m  01 14 13.323114 -00 56 55.50897
 2018-Sep-04 14:45  m  01 14 13.350303 -00 56 55.53796
 2018-Sep-04 14:46  m  01 14 13.377502 -00 56 55.56694
 2018-Sep-04 14:47  m  01 14 13.404710 -00 56 55.59593
 2018-Sep-04 14:48  m  01 14 13.431927 -00 56 55.62491
 2018-Sep-04 14:49  m  01 14 13.459154 -00 56 55.65390
 2018-Sep-04 14:50  m  01 14 13.486391 -00 56 55.68289
 2018-Sep-04 14:51  m  01 14 13.513637 -00 56 55.71188
 2018-Sep-04 14:52  m  01 14 13.540893 -00 56 55.74087
 2018-Sep-04 14:53 Am  01 14 13.568158 -00 56 55.76986
 2018-Sep-04 14:54 Am  01 14 13.595434 -00 56 55.79886
 2018-Sep-04 14:55 Am  01 14 13.622719 -00 56 55.82785
 2018-Sep-04 14:56 Am  01 14 13.650015 -00 56 55.85685
 2018-Sep-04 14:57 Am  01 14 13.677320 -00 56 55.88585
 2018-Sep-04 14:58 Am  01 14 13.704636 -00 56 55.91485
